FIREFLY-1               
1 62701U 25009CW  26198.25816220  .00000345  00000+0  38789-4 0  9994
2 62701  97.7061 275.7639 0002741 214.0126 146.0918 14.92743594 81801
FIREFLY-2               
1 62704U 25009CZ  26198.23607587  .00000659  00000+0  69238-4 0  9990
2 62704  97.7017 275.5109 0006204 356.1027   4.0143 14.92738130 81804
FIREFLY-3               
1 62710U 25009DF  26198.21410421  .00000554  00000+0  58958-4 0  9995
2 62710  97.7052 275.7504 0004682  68.8133 291.3586 14.92802267 81810
