{"fetched_at":"2026-07-17T17:38:12.652Z","source":"https://celestrak.org/NORAD/elements/gp.php?NAME=FIREFLY&FORMAT=JSON","constellation":"pixxel","records":[{"OBJECT_NAME":"FIREFLY-1","OBJECT_ID":"2025-009CW","EPOCH":"2026-07-17T06:11:45.214080","CLASSIFICATION_TYPE":"U","MEAN_MOTION":14.92743594,"ECCENTRICITY":0.00027419,"INCLINATION":97.7061,"RA_OF_ASC_NODE":275.7639,"ARG_OF_PERICENTER":214.0126,"MEAN_ANOMALY":146.0918,"EPHEMERIS_TYPE":0,"NORAD_CAT_ID":62701,"ELEMENT_SET_NO":999,"REV_AT_EPOCH":8180,"BSTAR":0.000038789187,"MEAN_MOTION_DOT":0.00000345,"MEAN_MOTION_DDOT":0},{"OBJECT_NAME":"FIREFLY-2","OBJECT_ID":"2025-009CZ","EPOCH":"2026-07-17T05:39:56.955168","CLASSIFICATION_TYPE":"U","MEAN_MOTION":14.9273813,"ECCENTRICITY":0.00062048,"INCLINATION":97.7017,"RA_OF_ASC_NODE":275.5109,"ARG_OF_PERICENTER":356.1027,"MEAN_ANOMALY":4.0143,"EPHEMERIS_TYPE":0,"NORAD_CAT_ID":62704,"ELEMENT_SET_NO":999,"REV_AT_EPOCH":8180,"BSTAR":0.000069237742,"MEAN_MOTION_DOT":0.00000659,"MEAN_MOTION_DDOT":0},{"OBJECT_NAME":"FIREFLY-3","OBJECT_ID":"2025-009DF","EPOCH":"2026-07-17T05:08:18.603744","CLASSIFICATION_TYPE":"U","MEAN_MOTION":14.92802267,"ECCENTRICITY":0.00046822,"INCLINATION":97.7052,"RA_OF_ASC_NODE":275.7504,"ARG_OF_PERICENTER":68.8133,"MEAN_ANOMALY":291.3586,"EPHEMERIS_TYPE":0,"NORAD_CAT_ID":62710,"ELEMENT_SET_NO":999,"REV_AT_EPOCH":8181,"BSTAR":0.000058957738,"MEAN_MOTION_DOT":0.00000554,"MEAN_MOTION_DDOT":0}]}
